id,name,state_id,state_code,state_name,country_id,country_code,country_name,latitude,longitude,wikiDataId
1,Aba North,303,AB,Abia,161,NG,Nigeria,5.33333333,7.31666667,Q4663114
2,Aba South,303,AB,Abia,161,NG,Nigeria,5.1,7.35,Q4663117
3,Arochukwu,303,AB,Abia,161,NG,Nigeria,5.38333333,7.91666667,Q965036
4,Bende,303,AB,Abia,161,NG,Nigeria,5.56666667,7.63333333,Q4887027
5,Ikwuano,303,AB,Abia,161,NG,Nigeria,5.43333333,7.56666667,Q5996447
6,Isiala Ngwa North,303,AB,Abia,161,NG,Nigeria,5.388966,7.446948,Q13140544
7,Isiala Ngwa South,303,AB,Abia,161,NG,Nigeria,5.36241,7.39998,Q6080818
8,Isuikwuato,303,AB,Abia,161,NG,Nigeria,5.533333,7.483333,Q6089443
9,Obi Ngwa,303,AB,Abia,161,NG,Nigeria,5.155402,7.457067,Q7074920
10,Ohafia,303,AB,Abia,161,NG,Nigeria,5.61666667,7.83333333,Q7080605
11,Osisioma,303,AB,Abia,161,NG,Nigeria,5.14972222,7.33027778,Q7106876
12,Ugwunagbo,303,AB,Abia,161,NG,Nigeria,4.984474,7.325783,Q7877949
13,Ukwa East,303,AB,Abia,161,NG,Nigeria,4.8872,7.3572,Q7878633
14,Ukwa West,303,AB,Abia,161,NG,Nigeria,4.9884,7.2425,Q11058273
15,Umu-Nneochi,303,AB,Abia,161,NG,Nigeria,5.985662,7.469005,Q7881822
16,Umuahia North,303,AB,Abia,161,NG,Nigeria,5.5333,7.4833,Q7881829
17,Umuahia South,303,AB,Abia,161,NG,Nigeria,5.515311,7.447314,Q7881831
18,Demsa,320,AD,Adamawa,161,NG,Nigeria,9.41666667,12.13333333,Q5256418
19,Fufore,320,AD,Adamawa,161,NG,Nigeria,9.21666667,12.65,Q5507236
20,Ganye,320,AD,Adamawa,161,NG,Nigeria,8.43333,12.0667,Q5521544
21,Girei,320,AD,Adamawa,161,NG,Nigeria,9.36667,12.55,Q5564220
22,Gombi,320,AD,Adamawa,161,NG,Nigeria,10.16222222,12.74,Q5608733
23,Guyuk,320,AD,Adamawa,161,NG,Nigeria,9.90555556,11.92833333,Q5622887
24,Hong,320,AD,Adamawa,161,NG,Nigeria,10.23166667,12.93027778,Q5894008
25,Jada,320,AD,Adamawa,161,NG,Nigeria,8.76666667,12.15,Q6121167
26,Lamurde,320,AD,Adamawa,161,NG,Nigeria,9.6,11.78333333,Q13140505
27,Madagali,320,AD,Adamawa,161,NG,Nigeria,10.74611111,13.41583333,Q6726121
28,Maiha,320,AD,Adamawa,161,NG,Nigeria,9.99555556,13.21805556,Q6735584
29,Mayo Belwa,320,AD,Adamawa,161,NG,Nigeria,9.05,12.05,Q6797493
30,Michika,320,AD,Adamawa,161,NG,Nigeria,10.61666667,13.38333333,Q6837873
31,Mubi North,320,AD,Adamawa,161,NG,Nigeria,10.26666667,13.26666667,Q10969312
32,Mubi South,320,AD,Adamawa,161,NG,Nigeria,10.1874,13.39576,Q6930892
33,Numan,320,AD,Adamawa,161,NG,Nigeria,9.46694444,12.03277778,Q3510590
34,Shelleng,320,AD,Adamawa,161,NG,Nigeria,9.88472222,12.00888889,Q4713068
35,Song,320,AD,Adamawa,161,NG,Nigeria,9.82444444,12.625,Q7560957
36,Toungo,320,AD,Adamawa,161,NG,Nigeria,8.11666667,12.05,Q7828915
37,Yola North,320,AD,Adamawa,161,NG,Nigeria,9.188528,12.393866,Q8054712
38,Yola South,320,AD,Adamawa,161,NG,Nigeria,9.249949,12.412618,Q8054714
39,Abak,304,AK,Akwa Ibom,161,NG,Nigeria,4.98333333,7.78333333,Q2820150
40,Eastern Obolo,304,AK,Akwa Ibom,161,NG,Nigeria,4.533333,7.7,Q5330341
41,Eket,304,AK,Akwa Ibom,161,NG,Nigeria,4.65,7.93333333,Q3321199
42,Esit Eket,304,AK,Akwa Ibom,161,NG,Nigeria,4.66055556,8.06666667,Q5397964
43,Essien Udim,304,AK,Akwa Ibom,161,NG,Nigeria,5.13333333,7.68333333,Q5399896
44,Etim Ekpo,304,AK,Akwa Ibom,161,NG,Nigeria,5.01666667,7.61666667,Q5404590
45,Etinan,304,AK,Akwa Ibom,161,NG,Nigeria,4.85,7.83333333,Q5404600
46,Ibeno,304,AK,Akwa Ibom,161,NG,Nigeria,4.568693,7.976396,Q5983812
47,Ibesikpo Asutan,304,AK,Akwa Ibom,161,NG,Nigeria,4.76666667,7.95,Q5983991
48,Ibiono Ibom,304,AK,Akwa Ibom,161,NG,Nigeria,5.23333333,7.88333333,Q5984067
49,Ika,304,AK,Akwa Ibom,161,NG,Nigeria,5.01666667,7.53333333,Q5995269
50,Ikono,304,AK,Akwa Ibom,161,NG,Nigeria,5.210278,7.793889,Q5996152
51,Ikot Abasi,304,AK,Akwa Ibom,161,NG,Nigeria,4.633333,7.65,Q5996219
52,Ikot Ekpene,304,AK,Akwa Ibom,161,NG,Nigeria,5.18333333,7.71666667,Q680926
53,Ini,304,AK,Akwa Ibom,161,NG,Nigeria,5.4,7.733333,Q13140466
54,Itu,304,AK,Akwa Ibom,161,NG,Nigeria,5.16666667,7.98333333,Q6095095
55,Mbo,304,AK,Akwa Ibom,161,NG,Nigeria,4.65,8.23333333,Q6799703
56,Mkpat Enin,304,AK,Akwa Ibom,161,NG,Nigeria,4.73361111,7.74861111,Q6885516
57,Nsit Atai,304,AK,Akwa Ibom,161,NG,Nigeria,4.85,8.01666667,Q7067566
58,Nsit Ibom,304,AK,Akwa Ibom,161,NG,Nigeria,4.88333333,7.9,Q7067567
59,Nsit Ubium,304,AK,Akwa Ibom,161,NG,Nigeria,4.76666667,7.93333333,Q10494314
60,Obot Akara,304,AK,Akwa Ibom,161,NG,Nigeria,5.26667,7.6,Q7075311
61,Okobo,304,AK,Akwa Ibom,161,NG,Nigeria,4.83333333,8.13333333,Q7082466
62,Onna,304,AK,Akwa Ibom,161,NG,Nigeria,4.65,7.86666667,Q7094369
63,Oron,304,AK,Akwa Ibom,161,NG,Nigeria,4.82583333,8.23388889,Q1277335
64,Oruk Anam,304,AK,Akwa Ibom,161,NG,Nigeria,4.81666667,7.65,Q7105162
65,Udung Uko,304,AK,Akwa Ibom,161,NG,Nigeria,4.76666667,8.23333333,Q7877346
66,Ukanafun,304,AK,Akwa Ibom,161,NG,Nigeria,4.9,7.6,Q7878266
67,Uruan,304,AK,Akwa Ibom,161,NG,Nigeria,5.03333333,8.05,Q11058133
68,Urue Offong/Oruko,304,AK,Akwa Ibom,161,NG,Nigeria,4.71667,8.15,Q7901410
69,Uyo,304,AK,Akwa Ibom,161,NG,Nigeria,5.03333333,7.91666667,Q1999000
70,Aguata,315,AN,Anambra,161,NG,Nigeria,6.01666667,7.08333333,Q4694513
71,Anambra East,315,AN,Anambra,161,NG,Nigeria,6.333333,6.866667,Q3509614
72,Anambra West,315,AN,Anambra,161,NG,Nigeria,6.416667,6.683333,Q3510446
73,Anaocha,315,AN,Anambra,161,NG,Nigeria,6.15,7.05,Q4751505
74,Awka North,315,AN,Anambra,161,NG,Nigeria,6.233333,7.133333,Q4830080
75,Awka South,315,AN,Anambra,161,NG,Nigeria,6.16666667,7.06666667,Q4830081
76,Ayamelum,315,AN,Anambra,161,NG,Nigeria,6.6,6.966667,Q4830907
77,Dunukofia,315,AN,Anambra,161,NG,Nigeria,6.271944,6.976667,Q5315776
78,Ekwusigo,315,AN,Anambra,161,NG,Nigeria,6.054662,6.82859,Q5350637
79,Idemili North,315,AN,Anambra,161,NG,Nigeria,6.097069,6.984745,Q11058846
80,Idemili South,315,AN,Anambra,161,NG,Nigeria,6.100683,6.898364,Q5988156
81,Ihiala,315,AN,Anambra,161,NG,Nigeria,5.85388889,6.86,Q3056230
82,Njikoka,315,AN,Anambra,161,NG,Nigeria,6.183846,6.99191,Q13653675
83,Nnewi North,315,AN,Anambra,161,NG,Nigeria,5.938767,5.938767,Q11058181
84,Nnewi South,315,AN,Anambra,161,NG,Nigeria,5.938383,6.921821,Q7042725
85,Ogbaru,315,AN,Anambra,161,NG,Nigeria,5.960656,6.731678,Q7079872
86,Onitsha North,315,AN,Anambra,161,NG,Nigeria,6.189277,6.805853,Q3509391
87,Onitsha South,315,AN,Anambra,161,NG,Nigeria,6.135818,6.788542,Q3510413
88,Orumba North,315,AN,Anambra,161,NG,Nigeria,6.042599,7.213103,Q7105167
89,Orumba South,315,AN,Anambra,161,NG,Nigeria,5.990942,5.990942,Q7105169
90,Oyi,315,AN,Anambra,161,NG,Nigeria,5.25,6.21666667,Q7116267
91,Alkaleri,312,BA,Bauchi,161,NG,Nigeria,9.88333333,10.5,Q4727632
92,Bauchi,312,BA,Bauchi,161,NG,Nigeria,10.31583333,9.84416667,Q811144
93,Bogoro,312,BA,Bauchi,161,NG,Nigeria,9.66852,9.60395,Q4937728
94,Damban,312,BA,Bauchi,161,NG,Nigeria,11.62592,10.78622,Q5212083
95,Darazo,312,BA,Bauchi,161,NG,Nigeria,11,10.41,Q5222130
96,Dass,312,BA,Bauchi,161,NG,Nigeria,10.126111,9.484704,Q5226825
97,Gamawa,312,BA,Bauchi,161,NG,Nigeria,12.133333,10.533333,Q5519589
98,Ganjuwa,312,BA,Bauchi,161,NG,Nigeria,10.868124,10.165283,Q5521392
99,Giade,312,BA,Bauchi,161,NG,Nigeria,11.390251,10.199128,Q5557957
100,Itas/Gadau,312,BA,Bauchi,161,NG,Nigeria,11.86666667,9.96666667,Q13140468
101,Jama'are,312,BA,Bauchi,161,NG,Nigeria,11.669111,9.928958,Q6127132
102,Katagum,312,BA,Bauchi,161,NG,Nigeria,12.28333333,10.35,Q6375000
103,Kirfi,312,BA,Bauchi,161,NG,Nigeria,10.4,10.4,Q6415063
104,Misau,312,BA,Bauchi,161,NG,Nigeria,11.313599,10.463126,Q2078475
105,Ningi,312,BA,Bauchi,161,NG,Nigeria,11.06666667,9.56666667,Q7038694
106,Shira,312,BA,Bauchi,161,NG,Nigeria,11.50416667,10.01722222,Q7498205
107,Tafawa Balewa,312,BA,Bauchi,161,NG,Nigeria,9.759094,9.553127,Q7674928
108,Toro,312,BA,Bauchi,161,NG,Nigeria,10.059364,9.071724,Q11058424
109,Warji,312,BA,Bauchi,161,NG,Nigeria,11.18333333,9.75,Q7969461
110,Zaki,312,BA,Bauchi,161,NG,Nigeria,12.13333333,10.28333333,Q8065082
111,Brass,305,BY,Bayelsa,161,NG,Nigeria,4.315,6.24166667,Q2923946
112,Ekeremor,305,BY,Bayelsa,161,NG,Nigeria,5.05,5.78333333,Q5350399
113,Kolokuma/Opokuma,305,BY,Bayelsa,161,NG,Nigeria,5.13333333,6.3,Q6427473
114,Nembe,305,BY,Bayelsa,161,NG,Nigeria,4.53690278,6.40621111,Q3510576
115,Ogbia,305,BY,Bayelsa,161,NG,Nigeria,4.78333333,6.33333333,Q7079876
116,Sagbama,305,BY,Bayelsa,161,NG,Nigeria,5.16666667,6.2,Q7399088
117,Southern Ijaw,305,BY,Bayelsa,161,NG,Nigeria,4.7,5.966667,Q11058325
118,Yenagoa,305,BY,Bayelsa,161,NG,Nigeria,5.03333333,6.33333333,Q648749
119,Ado,291,BE,Benue,161,NG,Nigeria,7.8,7.65,Q4683957
120,Agatu,291,BE,Benue,161,NG,Nigeria,7.9,7.9,Q3399397
121,Apa,291,BE,Benue,161,NG,Nigeria,7.829754,8.069994,Q4778862
122,Buruku,291,BE,Benue,161,NG,Nigeria,7.416792,9.224674,Q5000980
123,Gboko,291,BE,Benue,161,NG,Nigeria,7.327778,8.995,Q2425179
124,Guma,291,BE,Benue,161,NG,Nigeria,7.823295,8.863239,Q13140438
125,Gwer East,291,BE,Benue,161,NG,Nigeria,7.298066,8.482303,Q5623550
126,Gwer West,291,BE,Benue,161,NG,Nigeria,7.584645,8.205478,Q5623546
127,Katsina Ala,291,BE,Benue,161,NG,Nigeria,7.16666667,9.28333333,Q6378033
128,Konshisha,291,BE,Benue,161,NG,Nigeria,7.071123,8.663878,Q6429829
129,Kwande,291,BE,Benue,161,NG,Nigeria,6.890043,9.233408,Q6450151
130,Logo,291,BE,Benue,161,NG,Nigeria,7.507748,9.350653,Q6667711
131,Makurdi,291,BE,Benue,161,NG,Nigeria,7.730556,8.536111,Q994096
132,Obi,291,BE,Benue,161,NG,Nigeria,7,8.25,Q4207508
133,Ogbadibo,291,BE,Benue,161,NG,Nigeria,7.13907,7.668285,Q7079868
134,Ohimini,291,BE,Benue,161,NG,Nigeria,7.23015,7.927993,Q7080670
135,Oju,291,BE,Benue,161,NG,Nigeria,6.85,8.41666667,Q7081668
136,Okpokwu,291,BE,Benue,161,NG,Nigeria,7.06277778,8.21,Q7082560
137,Otukpo,291,BE,Benue,161,NG,Nigeria,7.19305556,8.14638889,Q3511323
138,Tarka,291,BE,Benue,161,NG,Nigeria,7.620833,8.881944,Q7686233
139,Ukum,291,BE,Benue,161,NG,Nigeria,7.530801,9.649268,Q7878615
140,Ushongo,291,BE,Benue,161,NG,Nigeria,7.135788,9.032921,Q7901973
141,Vandeikya,291,BE,Benue,161,NG,Nigeria,6.782346,9.069257,Q7914377
142,Abadam,307,BO,Borno,161,NG,Nigeria,13.610953,13.277664,Q3509646
143,Askira/Uba,307,BO,Borno,161,NG,Nigeria,10.654724,12.907777,Q3509469
144,Bama,307,BO,Borno,161,NG,Nigeria,11.51888889,13.68416667,Q3331583
145,Bayo,307,BO,Borno,161,NG,Nigeria,10.441838,11.704237,Q4874676
146,Biu,307,BO,Borno,161,NG,Nigeria,10.6111,12.195,Q2904965
147,Chibok,307,BO,Borno,161,NG,Nigeria,10.86972222,12.84666667,Q5095348
148,Damboa,307,BO,Borno,161,NG,Nigeria,11.15,12.75,Q5212096
149,Dikwa,307,BO,Borno,161,NG,Nigeria,12.0239,13.9158,Q5276586
150,Gubio,307,BO,Borno,161,NG,Nigeria,12.4975,12.78,Q5610675
151,Guzamala,307,BO,Borno,161,NG,Nigeria,12.94656,13.176822,Q5622902
152,Gwoza,307,BO,Borno,161,NG,Nigeria,11.086111,13.691389,Q5623719
153,Hawul,307,BO,Borno,161,NG,Nigeria,10.451308,12.116581,Q5685688
154,Jere,307,BO,Borno,161,NG,Nigeria,11.89912,13.29155,Q13140477
155,Kaga,307,BO,Borno,161,NG,Nigeria,11.810333,12.494153,Q6346306
156,Kala/Balge,307,BO,Borno,161,NG,Nigeria,12.268627,14.464896,Q6349919
157,Konduga,307,BO,Borno,161,NG,Nigeria,11.65166667,13.41944444,Q6429051
158,Kukawa,307,BO,Borno,161,NG,Nigeria,12.91666667,13.56666667,Q128665
159,Kwaya Kusar,307,BO,Borno,161,NG,Nigeria,11.817338,13.120352,Q6450273
160,Mafa,307,BO,Borno,161,NG,Nigeria,11.92583333,13.60555556,Q6729409
161,Magumeri,307,BO,Borno,161,NG,Nigeria,12.115657,12.83101,Q6732527
162,Maiduguri,307,BO,Borno,161,NG,Nigeria,11.83333333,13.15,Q221436
163,Marte,307,BO,Borno,161,NG,Nigeria,12.364596,13.826741,Q295517
164,Mobbar,307,BO,Borno,161,NG,Nigeria,13.103993,12.511041,Q6886647
165,Monguno,307,BO,Borno,161,NG,Nigeria,12.68333333,13.6,Q15043599
166,Ngala,307,BO,Borno,161,NG,Nigeria,12.371107,14.206223,Q7021892
167,Nganzai,307,BO,Borno,161,NG,Nigeria,12.486253,13.209321,Q7022015
168,Shani,307,BO,Borno,161,NG,Nigeria,10.183889,11.963889,Q7488621
169,Abi,314,CR,Cross River,161,NG,Nigeria,6.833333,7.233333,Q3510527
170,Akamkpa,314,CR,Cross River,161,NG,Nigeria,5.326828,8.346262,Q4700237
171,Akpabuyo,314,CR,Cross River,161,NG,Nigeria,4.950439,8.393276,Q4701571
172,Bakassi,314,CR,Cross River,161,NG,Nigeria,4.58333333,8.6,Q804272
173,Bekwarra,314,CR,Cross River,161,NG,Nigeria,6.69388889,8.9675,Q4881684
174,Biase,314,CR,Cross River,161,NG,Nigeria,5.557438,8.110474,Q4902588
175,Boki,314,CR,Cross River,161,NG,Nigeria,6.273889,9.01,Q4938771
176,Calabar Municipal,314,CR,Cross River,161,NG,Nigeria,4.974531,8.34241,Q5018280
177,Calabar South,314,CR,Cross River,161,NG,Nigeria,4.918822,8.320945,Q5018279
178,Etung,314,CR,Cross River,161,NG,Nigeria,5.858889,8.791667,Q5405088
179,Ikom,314,CR,Cross River,161,NG,Nigeria,6.08333333,8.61666667,Q5996091
180,Obanliku,314,CR,Cross River,161,NG,Nigeria,6.609277,9.250274,Q7074630
181,Obubra,314,CR,Cross River,161,NG,Nigeria,6.083333,8.333333,Q7075578
182,Obudu,314,CR,Cross River,161,NG,Nigeria,6.66666667,9.16666667,Q7075580
183,Odukpani,314,CR,Cross River,161,NG,Nigeria,5.079809,8.350403,Q7078367
184,Ogoja,314,CR,Cross River,161,NG,Nigeria,6.5,8.66666667,Q3509254
185,Yakurr,314,CR,Cross River,161,NG,Nigeria,5.806111,8.175,Q8047268
186,Yala,314,CR,Cross River,161,NG,Nigeria,6.7,8.6,Q8047286
187,Aniocha North,316,DE,Delta,161,NG,Nigeria,6.319994,6.476847,Q4765241
188,Aniocha South,316,DE,Delta,161,NG,Nigeria,6.183072,6.524367,Q4765242
189,Bomadi,316,DE,Delta,161,NG,Nigeria,5.161805,5.924511,Q4940347
190,Burutu,316,DE,Delta,161,NG,Nigeria,5.35,5.516667,Q3510499
191,Ethiope East,316,DE,Delta,161,NG,Nigeria,5.63314,6.028192,Q5403503
192,Ethiope West,316,DE,Delta,161,NG,Nigeria,5.63314,6.028192,Q5403511
193,Ika North East,316,DE,Delta,161,NG,Nigeria,6.186379,6.200409,Q5995280
194,Ika South,316,DE,Delta,161,NG,Nigeria,6.252758,6.199664,Q17139912
195,Isoko North,316,DE,Delta,161,NG,Nigeria,5.538333,6.216111,Q6085814
196,Isoko South,316,DE,Delta,161,NG,Nigeria,5.538333,6.216111,Q6085820
197,Ndokwa East,316,DE,Delta,161,NG,Nigeria,5.669319,6.523171,Q6983780
198,Ndokwa West,316,DE,Delta,161,NG,Nigeria,5.815022,6.350772,Q17109187
199,Okpe,316,DE,Delta,161,NG,Nigeria,5.43333333,5.95,Q7082548
200,Oshimili North,316,DE,Delta,161,NG,Nigeria,6.382652,6.624309,Q7106622
201,Oshimili South,316,DE,Delta,161,NG,Nigeria,6.118256,6.66583,Q7106620
202,Patani,316,DE,Delta,161,NG,Nigeria,5.2412505830419045,6.190626760617503,Q2478838
203,Sapele,316,DE,Delta,161,NG,Nigeria,5.9,5.66666667,Q3495356
204,Udu,316,DE,Delta,161,NG,Nigeria,5.75,5.716667,Q7877316
205,Ughelli North,316,DE,Delta,161,NG,Nigeria,9.75,8.71666667,Q15043628
206,Ughelli South,316,DE,Delta,161,NG,Nigeria,9.75,8.71666667,Q7877752
207,Ukwuani,316,DE,Delta,161,NG,Nigeria,5.850198,6.246481,Q7878637
208,Uvwie,316,DE,Delta,161,NG,Nigeria,5.87,6.001,Q7903753
209,Warri North,316,DE,Delta,161,NG,Nigeria,6.000089,5.466481,Q7970686
210,Warri South,316,DE,Delta,161,NG,Nigeria,5.519063,5.800606,Q7970687
211,Warri South West,316,DE,Delta,161,NG,Nigeria,5.599713,5.454881,Q7970689
212,Abakaliki,311,EB,Ebonyi,161,NG,Nigeria,6.33333333,8.1,Q304976
213,Afikpo North,311,EB,Ebonyi,161,NG,Nigeria,5.887936,7.953071,Q4689249
214,Afikpo South,311,EB,Ebonyi,161,NG,Nigeria,5.96666667,7.86666667,Q4689251
215,Ebonyi,311,EB,Ebonyi,161,NG,Nigeria,6.25,8.08333333,Q506808
216,Ezza North,311,EB,Ebonyi,161,NG,Nigeria,6.081572,7.995858,Q5423453
217,Ezza South,311,EB,Ebonyi,161,NG,Nigeria,6.177757,8.040377,Q5423452
218,Ishielu,311,EB,Ebonyi,161,NG,Nigeria,6.428567,7.818371,Q6080174
219,Ivo,311,EB,Ebonyi,161,NG,Nigeria,5.919317,7.55976,Q11058348
220,Izzi,311,EB,Ebonyi,161,NG,Nigeria,6.385765,8.02549,Q24263985
221,Ohaozara,311,EB,Ebonyi,161,NG,Nigeria,6.030218,7.71407,Q7080620
222,Ohaukwu,311,EB,Ebonyi,161,NG,Nigeria,6.030218,7.71407,Q7080634
223,Onicha,311,EB,Ebonyi,161,NG,Nigeria,6.11252,7.825484,Q7093889
224,Ikwo,311,EB,Ebonyi,161,NG,Nigeria,12.473,7.487,Q5996451
225,Akoko Edo,318,ED,Edo,161,NG,Nigeria,7.275622,6.107379,Q4701504
226,Egor,318,ED,Edo,161,NG,Nigeria,6.382926,5.569175,Q5348227
227,Esan Central,318,ED,Edo,161,NG,Nigeria,6.738727,6.218905,Q5396712
228,Esan North East,318,ED,Edo,161,NG,Nigeria,6.7,6.333333,Q5396720
229,Esan South East,318,ED,Edo,161,NG,Nigeria,6.659722,6.382222,Q5396716
230,Esan West,318,ED,Edo,161,NG,Nigeria,6.753472,6.073766,Q5396721
231,Etsako Central,318,ED,Edo,161,NG,Nigeria,7.08965,6.50146,Q5404912
232,Etsako East,318,ED,Edo,161,NG,Nigeria,7.106769,6.687541,Q5404915
233,Etsako West,318,ED,Edo,161,NG,Nigeria,6.913601,6.29955,Q5404913
234,Igueben,318,ED,Edo,161,NG,Nigeria,6.6,6.58333333,Q15043602
235,Ikpoba Okha,318,ED,Edo,161,NG,Nigeria,6.256981,5.722929,Q5996228
236,Oredo,318,ED,Edo,161,NG,Nigeria,6.183772,5.596106,Q7101001
237,Orhionmwon,318,ED,Edo,161,NG,Nigeria,6.294568,6.027932,Q7102189
238,Ovia North East,318,ED,Edo,161,NG,Nigeria,6.29312,5.543304,Q7114106
239,Ovia South West,318,ED,Edo,161,NG,Nigeria,6.567402,5.353142,Q7114107
240,Owan East,318,ED,Edo,161,NG,Nigeria,6.943126,5.985832,Q7114274
241,Owan West,318,ED,Edo,161,NG,Nigeria,6.907245,5.924599,Q7114275
242,Uhunmwonde,318,ED,Edo,161,NG,Nigeria,6.617483,5.985682,Q7878024
243,Ado-Ekiti,309,EK,Ekiti,161,NG,Nigeria,7.621111,5.221389,Q359955
244,Efon,309,EK,Ekiti,161,NG,Nigeria,7.36666667,3.63333333,Q5347554
245,Ekiti East,309,EK,Ekiti,161,NG,Nigeria,7.749096,5.719633,Q3511633
246,Ekiti South West,309,EK,Ekiti,161,NG,Nigeria,7.617082,5.24349,Q3511702
247,Ekiti West,309,EK,Ekiti,161,NG,Nigeria,7.657723,5.223741,Q3331544
248,Emure,309,EK,Ekiti,161,NG,Nigeria,7.45,5.46667,Q5374891
249,Gbonyin,309,EK,Ekiti,161,NG,Nigeria,7.621623,5.239016,Q5529352
250,Ido-Osi,309,EK,Ekiti,161,NG,Nigeria,7.856505,5.175537,Q5989257
251,Ijero,309,EK,Ekiti,161,NG,Nigeria,7.81667,5.08333,Q5995177
252,Ikere,309,EK,Ekiti,161,NG,Nigeria,7.5,5.23333,Q946097
253,Ikole,309,EK,Ekiti,161,NG,Nigeria,7.78333333,5.51666667,Q5996084
254,Ilejemeje,309,EK,Ekiti,161,NG,Nigeria,7.953263,5.230908,Q5997498
255,Irepodun/Ifelodun,309,EK,Ekiti,161,NG,Nigeria,7.621111,5.221389,Q6069392
256,Ise/Orun,309,EK,Ekiti,161,NG,Nigeria,7.46,5.42,Q6079560
257,Moba,309,EK,Ekiti,161,NG,Nigeria,7.987774,5.124049,Q6886588
258,Oye,309,EK,Ekiti,161,NG,Nigeria,7.79944444,5.32833333,Q7116252
259,Aninri,289,EN,Enugu,161,NG,Nigeria,6.05,7.58333333,Q4765240
260,Awgu,289,EN,Enugu,161,NG,Nigeria,6.1169,7.476,Q4830051
261,Enugu East,289,EN,Enugu,161,NG,Nigeria,6.53333,7.53333,Q5380873
262,Enugu North,289,EN,Enugu,161,NG,Nigeria,6.46666667,7.51666667,Q5380874
263,Enugu South,289,EN,Enugu,161,NG,Nigeria,6.4,7.5,Q5380875
264,Ezeagu,289,EN,Enugu,161,NG,Nigeria,6.75,7.33333333,Q5423113
265,Igbo Etiti,289,EN,Enugu,161,NG,Nigeria,6.66667,7.36667,Q5991568
266,Igbo Eze North,289,EN,Enugu,161,NG,Nigeria,6.98333,7.45,Q5991578
267,Igbo Eze South,289,EN,Enugu,161,NG,Nigeria,6.91667,7.4,Q5991584
268,Isi-Uzo,289,EN,Enugu,161,NG,Nigeria,6.78333333,7.71666667,Q11274430
269,Nkanu East,289,EN,Enugu,161,NG,Nigeria,6.33333333,7.65,Q7042529
270,Nkanu West,289,EN,Enugu,161,NG,Nigeria,6.3,7.55,Q11058668
271,Nsukka,289,EN,Enugu,161,NG,Nigeria,6.85666667,7.39583333,Q681198
272,Oji-River,289,EN,Enugu,161,NG,Nigeria,6.26666667,7.26666667,Q7081610
273,Udenu,289,EN,Enugu,161,NG,Nigeria,6.91667,7.51667,Q7877168
274,Udi,289,EN,Enugu,161,NG,Nigeria,6.31667,7.43333,Q7877213
275,Uzo-Uwani,289,EN,Enugu,161,NG,Nigeria,6.75,7.2,Q7905110
276,Abaji,293,FC,Federal Capital Territory,161,NG,Nigeria,8.475556,6.943333,Q1053237
277,Abuja,293,FC,Federal Capital Territory,161,NG,Nigeria,9.06666667,7.48333333,Q3787
278,Bwari,293,FC,Federal Capital Territory,161,NG,Nigeria,9.280278,7.38,Q5003670
279,Gwagwalada,293,FC,Federal Capital Territory,161,NG,Nigeria,8.939167,7.075833,Q2285343
280,Kuje,293,FC,Federal Capital Territory,161,NG,Nigeria,8.88222222,7.22027778,Q6442341
281,Kwali,293,FC,Federal Capital Territory,161,NG,Nigeria,8.839722,7.054167,Q6450057
282,Akko,310,GO,Gombe,161,NG,Nigeria,10.10706761352457,11.041261362116334,Q126084
283,Balanga,310,GO,Gombe,161,NG,Nigeria,9.96666667,11.68333333,Q4374738
284,Billiri,310,GO,Gombe,161,NG,Nigeria,9.83333333,11.15,Q3510517
285,Dukku,310,GO,Gombe,161,NG,Nigeria,10.81666667,10.76666667,Q5313235
286,Funakaye,310,GO,Gombe,161,NG,Nigeria,10.85,11.43333333,Q5508725
287,Gombe,310,GO,Gombe,161,NG,Nigeria,10.28333333,11.16666667,Q591598
288,Kaltungo,310,GO,Gombe,161,NG,Nigeria,9.88333333,11.43333333,Q6354502
289,Kwami,310,GO,Gombe,161,NG,Nigeria,10.5,11.25,Q6450109
290,Nafada,310,GO,Gombe,161,NG,Nigeria,11.1333,11.25,Q6958144
291,Shongom,310,GO,Gombe,161,NG,Nigeria,9.65,11.2167,Q7500408
292,Yamaltu/Deba,310,GO,Gombe,161,NG,Nigeria,10.2167,11.3833,Q3510505
293,Aboh Mbaise,308,IM,Imo,161,NG,Nigeria,5.45,7.23333333,Q4668212
294,Ahiazu Mbaise,308,IM,Imo,161,NG,Nigeria,5.546985,7.270299,Q4695100
295,Ehime Mbano,308,IM,Imo,161,NG,Nigeria,5.66258,7.30387,Q5348582
296,Ezinihitte Mbaise,308,IM,Imo,161,NG,Nigeria,5.50511,7.367715,Q5423295
297,Ideato North,308,IM,Imo,161,NG,Nigeria,5.50511,7.367715,Q5988103
298,Ideato South,308,IM,Imo,161,NG,Nigeria,5.85,7.1,Q5988113
299,Ihitte/Uboma,308,IM,Imo,161,NG,Nigeria,5.616412,7.349424,Q5994706
300,Ikeduru,308,IM,Imo,161,NG,Nigeria,5.550556,7.066389,Q5995775
301,Isiala Mbano,308,IM,Imo,161,NG,Nigeria,5.703582,7.179541,Q6080814
302,Isu,308,IM,Imo,161,NG,Nigeria,5.68388889,7.06888889,Q11058579
303,Mbaitoli,308,IM,Imo,161,NG,Nigeria,5.587778,7.05,Q11057544
304,Ngor Okpala,308,IM,Imo,161,NG,Nigeria,5.496233,7.043545,Q7022569
305,Njaba,308,IM,Imo,161,NG,Nigeria,5.702103,7.018633,Q10491509
306,Nkwerre,308,IM,Imo,161,NG,Nigeria,5.75,7.1,Q3509029
307,Nwangele,308,IM,Imo,161,NG,Nigeria,5.725859,7.119447,Q7070734
308,Obowo,308,IM,Imo,161,NG,Nigeria,5.601592,7.320757,Q7075319
309,Oguta,308,IM,Imo,161,NG,Nigeria,5.71166667,6.80944444,Q3510973
310,Ohaji/Egbema,308,IM,Imo,161,NG,Nigeria,5.305833,6.945556,Q7080607
311,Okigwe,308,IM,Imo,161,NG,Nigeria,5.483,7.55,Q3509182
312,Onuimo,308,IM,Imo,161,NG,Nigeria,5.77363,7.2411,Q7095088
313,Orlu,308,IM,Imo,161,NG,Nigeria,5.79638889,7.03888889,Q3508985
314,Orsu,308,IM,Imo,161,NG,Nigeria,5.853889,6.86,Q7104193
315,Oru East,308,IM,Imo,161,NG,Nigeria,5.983333,6.983333,Q7105120
316,Oru West,308,IM,Imo,161,NG,Nigeria,5.735833,6.883333,Q7105149
317,Owerri Municipal,308,IM,Imo,161,NG,Nigeria,5.485,7.035,Q7114779
318,Owerri North,308,IM,Imo,161,NG,Nigeria,5.456667,7.102778,Q7114782
319,Owerri West,308,IM,Imo,161,NG,Nigeria,5.476513,6.979718,Q7114784
320,Auyo,288,JI,Jigawa,161,NG,Nigeria,12.36,9.98555556,Q4827336
321,Babura,288,JI,Jigawa,161,NG,Nigeria,12.63333333,8.96666667,Q4838099
322,Biriniwa,288,JI,Jigawa,161,NG,Nigeria,12.7833,10.2333,Q13140398
323,Birnin Kudu,288,JI,Jigawa,161,NG,Nigeria,11.45,9.475,Q4916902
324,Buji,288,JI,Jigawa,161,NG,Nigeria,11.66371,9.730518,Q4986741
325,Dutse,288,JI,Jigawa,161,NG,Nigeria,11.70111111,9.34194444,Q1023713
326,Gagarawa,288,JI,Jigawa,161,NG,Nigeria,12.407564,9.528397,Q5516809
327,Garki,288,JI,Jigawa,161,NG,Nigeria,12.432259,9.181244,Q5523392
328,Gumel,288,JI,Jigawa,161,NG,Nigeria,12.62833333,9.38972222,Q1023716
329,Guri,288,JI,Jigawa,161,NG,Nigeria,12.633757685656763,10.481106764515644,Q42071
330,Gwaram,288,JI,Jigawa,161,NG,Nigeria,11.185833,9.968611,Q5623339
331,Gwiwa,288,JI,Jigawa,161,NG,Nigeria,12.736914,8.271095,Q5623681
332,Hadejia,288,JI,Jigawa,161,NG,Nigeria,12.45,10.04,Q5637733
333,Jahun,288,JI,Jigawa,161,NG,Nigeria,12.06666667,9.63333333,Q6123326
334,Kafin Hausa,288,JI,Jigawa,161,NG,Nigeria,11.981763,8.496467,Q218744
335,Kaugama,288,JI,Jigawa,161,NG,Nigeria,12.4833,9.73333,Q6378697
336,Kazaure,288,JI,Jigawa,161,NG,Nigeria,12.6528,8.41194,Q6380928
337,Kiri Kasama,288,JI,Jigawa,161,NG,Nigeria,12.594408,10.214753,Q6415076
338,Kiyawa,288,JI,Jigawa,161,NG,Nigeria,11.78472222,9.60833333,Q6418966
339,Maigatari,288,JI,Jigawa,161,NG,Nigeria,12.804038,9.448007,Q7682218
340,Malam Madori,288,JI,Jigawa,161,NG,Nigeria,12.554071,10.028136,Q6741213
341,Miga,288,JI,Jigawa,161,NG,Nigeria,12.23333333,9.71666667,Q3857126
342,Ringim,288,JI,Jigawa,161,NG,Nigeria,12.28333333,9.46666667,Q7334893
343,Roni,288,JI,Jigawa,161,NG,Nigeria,12.566481,8.347088,Q7365684
344,Sule Tankarkar,288,JI,Jigawa,161,NG,Nigeria,12.65577,9.18751,Q7636102
345,Taura,288,JI,Jigawa,161,NG,Nigeria,12.2724893,9.36241882485775,Q71057
346,Yankwashi,288,JI,Jigawa,161,NG,Nigeria,12.743623,8.53892,Q8048834
347,Birnin Gwari,294,KD,Kaduna,161,NG,Nigeria,10.6667,6.55,Q13140400
348,Chikun,294,KD,Kaduna,161,NG,Nigeria,10.285059,7.110283,Q5097501
349,Giwa,294,KD,Kaduna,161,NG,Nigeria,11.280784,7.417606,Q5565892
350,Igabi,294,KD,Kaduna,161,NG,Nigeria,10.78333333,7.76666667,Q5991414
351,Ikara,294,KD,Kaduna,161,NG,Nigeria,11.1833,8.23333,Q5995371
352,Jaba,294,KD,Kaduna,161,NG,Nigeria,9.44818,8.00845,Q13140472
353,Jema'a,294,KD,Kaduna,161,NG,Nigeria,9.578827,8.292147,Q6177061
354,Kachia,294,KD,Kaduna,161,NG,Nigeria,9.872636,7.955089,Q6344670
355,Kaduna North,294,KD,Kaduna,161,NG,Nigeria,9.923174,7.430551,Q13140547
356,Kaduna South,294,KD,Kaduna,161,NG,Nigeria,10.464834,7.418024,Q6345763
357,Kagarko,294,KD,Kaduna,161,NG,Nigeria,9.45,7.68333333,Q6346376
358,Kajuru,294,KD,Kaduna,161,NG,Nigeria,9.489736,7.695075,Q6349067
359,Kaura,294,KD,Kaduna,161,NG,Nigeria,9.630686,8.503075,Q6378873
360,Kauru,294,KD,Kaduna,161,NG,Nigeria,10.65,8.15,Q6378904
361,Kubau,294,KD,Kaduna,161,NG,Nigeria,10.96289,8.392213,Q6441191
362,Kudan,294,KD,Kaduna,161,NG,Nigeria,11.26478,7.648952,Q6441647
363,Lere,294,KD,Kaduna,161,NG,Nigeria,10.416589,8.681673,Q6528787
364,Makarfi,294,KD,Kaduna,161,NG,Nigeria,11.29795,7.96917,Q6738780
365,Sabon Gari,294,KD,Kaduna,161,NG,Nigeria,11.1167,7.73333,Q7396283
366,Sanga,294,KD,Kaduna,161,NG,Nigeria,9.225183,8.459182,Q5290125
367,Soba,294,KD,Kaduna,161,NG,Nigeria,10.984935,8.058804,Q7549885
368,Zangon Kataf,294,KD,Kaduna,161,NG,Nigeria,9.784597,8.283949,Q8066201
369,Zaria,294,KD,Kaduna,161,NG,Nigeria,11.06666667,7.7,Q147975
370,Ajingi,300,KN,Kano,161,NG,Nigeria,11.97,9.03916667,Q4699747
371,Albasu,300,KN,Kano,161,NG,Nigeria,11.67388889,9.14111111,Q4709434
372,Bagwai,300,KN,Kano,161,NG,Nigeria,12.15777778,8.13583333,Q4842187
373,Bebeji,300,KN,Kano,161,NG,Nigeria,11.66666667,8.26666667,Q4878426
374,Bichi,300,KN,Kano,161,NG,Nigeria,12.23416667,8.24111111,Q4903607
375,Bunkure,300,KN,Kano,161,NG,Nigeria,11.7,8.55,Q13140410
376,Dala,300,KN,Kano,161,NG,Nigeria,12.01666667,8.48333333,Q5210142
377,Dambatta,300,KN,Kano,161,NG,Nigeria,12.43305556,8.51527778,Q5212087
378,Dawakin Kudu,300,KN,Kano,161,NG,Nigeria,11.83472222,8.59805556,Q5242270
379,Dawakin Tofa,300,KN,Kano,161,NG,Nigeria,12.10277778,8.33138889,Q5242271
380,Doguwa,300,KN,Kano,161,NG,Nigeria,10.75,8.73333333,Q5288494
381,Fagge,300,KN,Kano,161,NG,Nigeria,12.00666667,8.52916667,Q5429405
382,Gabasawa,300,KN,Kano,161,NG,Nigeria,12.1,8.88333333,Q5515278
383,Garko,300,KN,Kano,161,NG,Nigeria,11.65,8.9,Q5523394
384,Garun Malam,300,KN,Kano,161,NG,Nigeria,11.6833,8.36667,Q5524488
385,Gaya,300,KN,Kano,161,NG,Nigeria,11.86805556,9.01111111,Q5528692
386,Gezawa,300,KN,Kano,161,NG,Nigeria,12.1,8.73333333,Q5555061
387,Gwale,300,KN,Kano,161,NG,Nigeria,11.96666667,8.5,Q5623248
388,Gwarzo,300,KN,Kano,161,NG,Nigeria,11.91666667,7.93333333,Q5623352
389,Kabo,300,KN,Kano,161,NG,Nigeria,11.891463250000001,8.200628471157401,Q2428075
390,Kano Municipal,300,KN,Kano,161,NG,Nigeria,11.95194444,8.54027778,Q10313749
391,Karaye,300,KN,Kano,161,NG,Nigeria,11.78333333,8.01666667,Q6368888
392,Kibiya,300,KN,Kano,161,NG,Nigeria,11.53333333,8.66666667,Q6404045
393,Kiru,300,KN,Kano,161,NG,Nigeria,11.7,8.13333333,Q6416264
394,Kunchi,300,KN,Kano,161,NG,Nigeria,12.50138889,8.27166667,Q6444225
395,Kura,300,KN,Kano,161,NG,Nigeria,11.77138889,8.43027778,Q6445487
396,Madobi,300,KN,Kano,161,NG,Nigeria,11.77722222,8.28833333,Q6728324
397,Makoda,300,KN,Kano,161,NG,Nigeria,12.41861111,8.4325,Q6739854
398,Minjibir,300,KN,Kano,161,NG,Nigeria,12.17833333,8.65916667,Q6867755
399,Nasarawa,300,KN,Kano,161,NG,Nigeria,8.53333333,8.3,Q836645
400,Rano,300,KN,Kano,161,NG,Nigeria,11.55722222,8.58333333,Q7293412
401,Rimin Gado,300,KN,Kano,161,NG,Nigeria,11.965,8.25,Q3432111
402,Rogo,300,KN,Kano,161,NG,Nigeria,11.56666667,7.83333333,Q7359427
403,Shanono,300,KN,Kano,161,NG,Nigeria,12.05,7.98333333,Q7489007
404,Sumaila,300,KN,Kano,161,NG,Nigeria,11.53333333,8.96666667,Q7636917
405,Takai,300,KN,Kano,161,NG,Nigeria,11.4853125,9.156044842198048,Q48723575
406,Tarauni,300,KN,Kano,161,NG,Nigeria,11.96666667,8.56666667,Q9081916
407,Tofa,300,KN,Kano,161,NG,Nigeria,12.05,8.26666667,Q7812950
408,Tsanyawa,300,KN,Kano,161,NG,Nigeria,12.3,7.98333333,Q7849383
409,Tudun Wada,300,KN,Kano,161,NG,Nigeria,11.25,8.4,Q7851355
410,Ungogo,300,KN,Kano,161,NG,Nigeria,12.09055556,8.49666667,Q3510251
411,Warawa,300,KN,Kano,161,NG,Nigeria,11.88333333,8.68333333,Q7968824
412,Wudil,300,KN,Kano,161,NG,Nigeria,11.81666667,8.85,Q8039048
413,kumbotso,300,KN,Kano,161,NG,Nigeria,11.88805556,8.50277778,Q6443769
414,Bakori,313,KT,Katsina,161,NG,Nigeria,11.55,7.43333333,Q4849509
415,Batagarawa,313,KT,Katsina,161,NG,Nigeria,12.9,7.61666667,Q4868527
416,Batsari,313,KT,Katsina,161,NG,Nigeria,12.75277778,7.24194444,Q4869633
417,Baure,313,KT,Katsina,161,NG,Nigeria,12.78333333,8.76666667,Q4873577
418,Bindawa,313,KT,Katsina,161,NG,Nigeria,12.71666667,7.83333333,Q4913977
419,Charanchi,313,KT,Katsina,161,NG,Nigeria,12.675,7.7275,Q5073921
420,Dan Musa,313,KT,Katsina,161,NG,Nigeria,12.26388889,7.33388889,Q5214083
421,DanDume,313,KT,Katsina,161,NG,Nigeria,11.41666667,7.2,Q5215754
422,Danja,313,KT,Katsina,161,NG,Nigeria,11.38333333,7.56666667,Q5219922
423,Daura,313,KT,Katsina,161,NG,Nigeria,13.03638889,8.31777778,Q1173023
424,Dutsi,313,KT,Katsina,161,NG,Nigeria,12.82527778,8.14277778,Q5317531
425,Dutsin-Ma,313,KT,Katsina,161,NG,Nigeria,12.455,7.49138889,Q5317533
426,Faskari,313,KT,Katsina,161,NG,Nigeria,11.71666667,7.03333333,Q5436812
427,Funtua,313,KT,Katsina,161,NG,Nigeria,11.53333333,7.31666667,Q3056264
428,Ingawa,313,KT,Katsina,161,NG,Nigeria,12.63972222,8.05027778,Q15043610
429,Jibia,313,KT,Katsina,161,NG,Nigeria,13.09166667,7.22638889,Q6192032
430,Kafur,313,KT,Katsina,161,NG,Nigeria,11.65,7.7,Q6346293
431,Kaita,313,KT,Katsina,161,NG,Nigeria,13.08055556,7.75388889,Q6348575
432,Kankara,313,KT,Katsina,161,NG,Nigeria,11.930319,7.412649,Q6363677
433,Kankia,313,KT,Katsina,161,NG,Nigeria,12.46666667,7.8,Q6363735
434,Katsina,313,KT,Katsina,161,NG,Nigeria,12.98888889,7.60083333,Q937487
435,Kurfi,313,KT,Katsina,161,NG,Nigeria,12.66611111,7.48305556,Q6445904
436,Kusada,313,KT,Katsina,161,NG,Nigeria,12.46666667,7.98333333,Q6447735
437,Mai'Adua,313,KT,Katsina,161,NG,Nigeria,13.19055556,8.21166667,Q6735083
438,Malumfashi,313,KT,Katsina,161,NG,Nigeria,11.8,7.61666667,Q6744962
439,Mani,313,KT,Katsina,161,NG,Nigeria,12.85611111,7.87444444,Q6749389
440,Mashi,313,KT,Katsina,161,NG,Nigeria,13.1,8,Q6783140
441,Matazu,313,KT,Katsina,161,NG,Nigeria,12.2333,7.66667,Q6786185
442,Musawa,313,KT,Katsina,161,NG,Nigeria,12.12944444,7.66888889,Q10474195
443,Rimi,313,KT,Katsina,161,NG,Nigeria,12.85,7.71555556,Q7334455
444,Sabuwa,313,KT,Katsina,161,NG,Nigeria,11.3,7.11666667,Q7396498
445,Safana,313,KT,Katsina,161,NG,Nigeria,12.5,7.23333333,Q7398366
446,Sandamu,313,KT,Katsina,161,NG,Nigeria,12.93333333,8.36666667,Q7415981
447,Zango,313,KT,Katsina,161,NG,Nigeria,12.93333333,8.53333333,Q8066198
448,Aliero,290,KE,Kebbi,161,NG,Nigeria,12.29654,4.42793,Q4714427
449,Arewa Dandi,290,KE,Kebbi,161,NG,Nigeria,12.688388,4.074184,Q4789123
450,Argungu,290,KE,Kebbi,161,NG,Nigeria,12.73333333,4.51666667,Q652068
451,Augie,290,KE,Kebbi,161,NG,Nigeria,12.88333333,4.6,Q4820393
452,Bagudo,290,KE,Kebbi,161,NG,Nigeria,11.400095,4.225767,Q800145
453,Birnin Kebbi,290,KE,Kebbi,161,NG,Nigeria,12.45361111,4.20027778,Q865828
454,Bunza,290,KE,Kebbi,161,NG,Nigeria,12.0916,4.0108,Q1707615
455,Dandi,290,KE,Kebbi,161,NG,Nigeria,12.68333333,8.66666667,Q9285759
456,Danko-Wasagu,290,KE,Kebbi,161,NG,Nigeria,11.395688,5.485568,Q7971327
457,Fakai,290,KE,Kebbi,161,NG,Nigeria,11.547523,4.96493,Q5431445
458,Gwandu,290,KE,Kebbi,161,NG,Nigeria,12.50222222,4.6425,Q1337777
459,Jega,290,KE,Kebbi,161,NG,Nigeria,12.3667,4.6333,Q1707534
460,Kalgo,290,KE,Kebbi,161,NG,Nigeria,12.33257,4.20035,Q13140479
461,Koko/Besse,290,KE,Kebbi,161,NG,Nigeria,11.45855,4.43782,Q6426701
462,Maiyama,290,KE,Kebbi,161,NG,Nigeria,11.99054,4.35394,Q6737240
463,Ngaski,290,KE,Kebbi,161,NG,Nigeria,10.40709,4.71781,Q7022112
464,Sakaba,290,KE,Kebbi,161,NG,Nigeria,11.065401,5.596032,Q7402731
465,Shanga,290,KE,Kebbi,161,NG,Nigeria,11.1958,4.5675,Q11058523
466,Suru,290,KE,Kebbi,161,NG,Nigeria,11.83,4.096667,Q7646970
467,Yauri,290,KE,Kebbi,161,NG,Nigeria,11.395688,5.485568,Q8050359
468,Zuru,290,KE,Kebbi,161,NG,Nigeria,11.435,5.235,Q8075416
469,Adavi,298,KO,Kogi,161,NG,Nigeria,7.66666667,6.45,Q4680897
470,Ajaokuta,298,KO,Kogi,161,NG,Nigeria,7.55611111,6.655,Q3509230
471,Ankpa,298,KO,Kogi,161,NG,Nigeria,7.43333333,7.63333333,Q4766098
472,Bassa,298,KO,Kogi,161,NG,Nigeria,7.9,7.05,Q4867995
473,Dekina,298,KO,Kogi,161,NG,Nigeria,7.58333333,7.2,Q5252818
474,Ibaji,298,KO,Kogi,161,NG,Nigeria,6.86666667,6.8,Q5983615
475,Idah,298,KO,Kogi,161,NG,Nigeria,7.08333333,6.75,Q3048500
476,Igalamela Odolu,298,KO,Kogi,161,NG,Nigeria,7.08333333,7.08333333,Q5991434
477,Ijumu,298,KO,Kogi,161,NG,Nigeria,7.85,5.96666667,Q5995233
478,Kabba/Bunu,298,KO,Kogi,161,NG,Nigeria,8.11666667,6.15,Q6343980
479,Kogi,298,KO,Kogi,161,NG,Nigeria,7.5,6.7,Q387745
480,Lokoja,298,KO,Kogi,161,NG,Nigeria,7.80194444,6.74416667,Q994085
481,Mopa-Muro,298,KO,Kogi,161,NG,Nigeria,8.09722222,5.89583333,Q6908772
482,Ofu,298,KO,Kogi,161,NG,Nigeria,7.33333333,7.08333333,Q10676724
483,Ogori/Magongo,298,KO,Kogi,161,NG,Nigeria,7.483333,6.216667,Q7080208
484,Okehi,298,KO,Kogi,161,NG,Nigeria,7.7,6.3,Q7081917
485,Okene,298,KO,Kogi,161,NG,Nigeria,7.55,6.23333333,Q2017187
486,Olamaboro,298,KO,Kogi,161,NG,Nigeria,7.18333,7.56667,Q7083067
487,Omala,298,KO,Kogi,161,NG,Nigeria,7.81666667,7.51666667,Q7089500
488,Yagba East,298,KO,Kogi,161,NG,Nigeria,8.16666667,5.7,Q8046693
489,Yagba West,298,KO,Kogi,161,NG,Nigeria,8.25,5.55,Q8046694
490,Asa,295,KW,Kwara,161,NG,Nigeria,8.324804,4.533673,Q3510490
491,Baruten,295,KW,Kwara,161,NG,Nigeria,9.58333333,3.25,Q4865926
492,Edu,295,KW,Kwara,161,NG,Nigeria,8.841903,5.399178,Q5340346
493,Ekiti,295,KW,Kwara,161,NG,Nigeria,8.139435,5.32809,Q3511682
494,Ifelodun,295,KW,Kwara,161,NG,Nigeria,8.820023,4.967322,Q5991150
495,Ilorin East,295,KW,Kwara,161,NG,Nigeria,8.573234,4.703608,Q6001095
496,Ilorin South,295,KW,Kwara,161,NG,Nigeria,8.498688,4.562779,Q16733661
497,Ilorin West,295,KW,Kwara,161,NG,Nigeria,8.480048,4.614006,Q6001104
498,Irepodun,295,KW,Kwara,161,NG,Nigeria,8.487457,4.527301,Q10303589
499,Isin,295,KW,Kwara,161,NG,Nigeria,8.2579064,5.038849070678933,Q501259
500,Kaiama,295,KW,Kwara,161,NG,Nigeria,9.605193,3.941946,Q14653808
501,Moro,295,KW,Kwara,161,NG,Nigeria,8.845,4.556667,Q6913056
502,Offa,295,KW,Kwara,161,NG,Nigeria,8.147,4.72,Q2015456
503,Oke-Ero,295,KW,Kwara,161,NG,Nigeria,8.088888,5.144659,Q7081881
504,Oyun,295,KW,Kwara,161,NG,Nigeria,8.16827,4.65212,Q7116389
505,Pategi,295,KW,Kwara,161,NG,Nigeria,8.73333333,5.75,Q7144399
506,Agege,306,LA,Lagos,161,NG,Nigeria,6.62194444,3.32583333,Q3509545
507,Ajeromi-Ifelodun,306,LA,Lagos,161,NG,Nigeria,6.4448,3.3339,Q3509013
508,Alimosho,306,LA,Lagos,161,NG,Nigeria,6.61055556,3.29583333,Q3509580
509,Amuwo-Odofin,306,LA,Lagos,161,NG,Nigeria,6.45,3.266667,Q3509621
510,Apapa,306,LA,Lagos,161,NG,Nigeria,6.45,3.36666667,Q617618
511,Badagry,306,LA,Lagos,161,NG,Nigeria,6.41666667,2.88333333,Q798812
512,Epe,306,LA,Lagos,161,NG,Nigeria,6.58333333,3.98333333,Q1023707
513,Eti-Osa,306,LA,Lagos,161,NG,Nigeria,6.437443,3.564588,Q5404527
514,Ibeju-Lekki,306,LA,Lagos,161,NG,Nigeria,6.416667,2.883333,Q5983804
515,Ifako-Ijaiye,306,LA,Lagos,161,NG,Nigeria,6.68472222,3.28888889,Q5991116
516,Ikeja,306,LA,Lagos,161,NG,Nigeria,6.6,3.35,Q1024647
517,Ikorodu,306,LA,Lagos,161,NG,Nigeria,6.6,3.5,Q1658159
518,Kosofe,306,LA,Lagos,161,NG,Nigeria,6.556879,3.384174,Q6433326
519,Lagos Island,306,LA,Lagos,161,NG,Nigeria,6.45,3.4,Q605583
520,Lagos Mainland,306,LA,Lagos,161,NG,Nigeria,6.504937,3.386503,Q6472602
521,Mushin,306,LA,Lagos,161,NG,Nigeria,6.53333333,3.35,Q3139881
522,Ojo,306,LA,Lagos,161,NG,Nigeria,6.46666667,3.18333333,Q623249
523,Oshodi-Isolo,306,LA,Lagos,161,NG,Nigeria,6.511865,3.308021,Q7106648
524,Somolu,306,LA,Lagos,161,NG,Nigeria,6.540833,3.387222,Q280585
525,Surulere,306,LA,Lagos,161,NG,Nigeria,6.5,3.35,Q994119
526,Akwanga,301,NA,Nasarawa,161,NG,Nigeria,8.91666667,8.38333333,Q4702008
527,Awe,301,NA,Nasarawa,161,NG,Nigeria,7.823611,3.95,Q11010622
528,Doma,301,NA,Nasarawa,161,NG,Nigeria,8.396241,8.35864,Q5289773
529,Karu,301,NA,Nasarawa,161,NG,Nigeria,9.019231,7.613516,Q6373591
530,Keana,301,NA,Nasarawa,161,NG,Nigeria,8.147346,8.800478,Q6382153
531,Keffi,301,NA,Nasarawa,161,NG,Nigeria,8.8464,7.8733,Q3510599
532,Kokona,301,NA,Nasarawa,161,NG,Nigeria,8.85,5.08333333,Q6426774
533,Lafia,301,NA,Nasarawa,161,NG,Nigeria,8.49166667,8.51666667,Q1023721
534,Nasarawa,301,NA,Nasarawa,161,NG,Nigeria,8.53333333,8.3,Q836645
535,Nasarawa Egon,301,NA,Nasarawa,161,NG,Nigeria,8.741115,8.542192,Q17109172
536,Obi,301,NA,Nasarawa,161,NG,Nigeria,7,8.25,Q4207508
537,Toto,301,NA,Nasarawa,161,NG,Nigeria,8.388021,7.078199,Q7828363
538,Wamba,301,NA,Nasarawa,161,NG,Nigeria,8.93333333,8.6,Q3331559
539,Agaie,317,NI,Niger,161,NG,Nigeria,9.01666667,6.31666667,Q3510662
540,Agwara,317,NI,Niger,161,NG,Nigeria,10.7,4.58333333,Q4694720
541,Bida,317,NI,Niger,161,NG,Nigeria,9.08333333,6.01666667,Q3320844
542,Borgu,317,NI,Niger,161,NG,Nigeria,11,3.5,Q893575
543,Bosso,317,NI,Niger,161,NG,Nigeria,9.651457,6.526626,Q13140406
544,Chanchaga,317,NI,Niger,161,NG,Nigeria,9.61388889,6.55694444,Q5070843
545,Edati,317,NI,Niger,161,NG,Nigeria,9.05,5.65,Q5335717
546,Gbako,317,NI,Niger,161,NG,Nigeria,9.26666667,5.98333333,Q5529303
547,Gurara,317,NI,Niger,161,NG,Nigeria,9.35,7.08333333,Q13140440
548,Katcha,317,NI,Niger,161,NG,Nigeria,9.15,6.23333333,Q6375298
549,Kontagora,317,NI,Niger,161,NG,Nigeria,10.403,5.473,Q994129
550,Lapai,317,NI,Niger,161,NG,Nigeria,8.81666667,6.68333333,Q13140504
551,Lavun,317,NI,Niger,161,NG,Nigeria,9.45,5.63333333,Q6502882
552,Magama,317,NI,Niger,161,NG,Nigeria,10.46666667,5.05,Q6729655
553,Mariga,317,NI,Niger,161,NG,Nigeria,10.7,5.83333333,Q13140509
554,Mashegu,317,NI,Niger,161,NG,Nigeria,9.95,5.21666667,Q6783100
555,Mokwa,317,NI,Niger,161,NG,Nigeria,9.2,5.33333333,Q6895614
556,Munya,317,NI,Niger,161,NG,Nigeria,9.78333,7.03333,Q6937031
557,Paikoro,317,NI,Niger,161,NG,Nigeria,9.43333,6.63333,Q7124754
558,Rafi,317,NI,Niger,161,NG,Nigeria,10.18444444,6.25333333,Q7282616
559,Rijau,317,NI,Niger,161,NG,Nigeria,11.1,5.26666667,Q7333948
560,Shiroro,317,NI,Niger,161,NG,Nigeria,9.95694444,6.83194444,Q7498951
561,Suleja,317,NI,Niger,161,NG,Nigeria,9.18333333,7.18333333,Q3505231
562,Tafa,317,NI,Niger,161,NG,Nigeria,9.25,7.25,Q7674909
563,Wushishi,317,NI,Niger,161,NG,Nigeria,9.721763,6.111317,Q8039343
564,Abeokuta North,323,OG,Ogun,161,NG,Nigeria,7.2,3.2,Q3509588
565,Abeokuta South,323,OG,Ogun,161,NG,Nigeria,7.15,3.35,Q3509517
566,Ado-Odo/Ota,323,OG,Ogun,161,NG,Nigeria,6.63333333,3.1,Q3510345
567,Ewekoro,323,OG,Ogun,161,NG,Nigeria,6.93333333,3.21666667,Q5418952
568,Ifo,323,OG,Ogun,161,NG,Nigeria,6.81666667,3.2,Q5991216
569,Ijebu East,323,OG,Ogun,161,NG,Nigeria,6.73333333,4.16666667,Q5995157
570,Ijebu North,323,OG,Ogun,161,NG,Nigeria,6.95,4,Q5995160
571,Ijebu North East,323,OG,Ogun,161,NG,Nigeria,6.9,4.01666667,Q10301003
572,Ijebu Ode,323,OG,Ogun,161,NG,Nigeria,6.82083333,3.92083333,Q1023726
573,Ikenne,323,OG,Ogun,161,NG,Nigeria,6.86666667,3.71666667,Q5995826
574,Imeko Afon,323,OG,Ogun,161,NG,Nigeria,7.63333333,2.86666667,Q6003726
575,Ipokia,323,OG,Ogun,161,NG,Nigeria,6.53333333,2.85,Q6065226
576,Obafemi Owode,323,OG,Ogun,161,NG,Nigeria,6.95,3.5,Q7074576
577,Odeda,323,OG,Ogun,161,NG,Nigeria,7.21666667,3.51666667,Q7077620
578,Odogbolu,323,OG,Ogun,161,NG,Nigeria,6.76666667,3.8,Q10667640
579,Ogun Waterside,323,OG,Ogun,161,NG,Nigeria,6.48333333,4.4,Q7080284
580,Remo North,323,OG,Ogun,161,NG,Nigeria,7,3.71666667,Q7312042
581,Shagamu,323,OG,Ogun,161,NG,Nigeria,6.83333333,3.65,Q2276423
582,Yewa North,323,OG,Ogun,161,NG,Nigeria,7.15,2.91666667,Q8053331
583,Yewa South,323,OG,Ogun,161,NG,Nigeria,6.8,2.95,Q3511626
584,Akoko North East,321,ON,Ondo,161,NG,Nigeria,7.516667,5.75,Q4701505
585,Akoko North West,321,ON,Ondo,161,NG,Nigeria,7.643346,5.76057,Q4701507
586,Akoko South East,321,ON,Ondo,161,NG,Nigeria,7.451155,5.910301,Q4701508
587,Akoko South West,321,ON,Ondo,161,NG,Nigeria,7.45439,5.801639,Q4701509
588,Akure North,321,ON,Ondo,161,NG,Nigeria,7.26277778,5.31583333,Q4701973
589,Akure South,321,ON,Ondo,161,NG,Nigeria,7.2075,5.18833333,Q4701976
590,Ese Odo,321,ON,Ondo,161,NG,Nigeria,6.25754,5.000496,Q5397549
591,Idanre,321,ON,Ondo,161,NG,Nigeria,7.09222222,5.13222222,Q5987687
592,Ifedore,321,ON,Ondo,161,NG,Nigeria,7.343085,5.108323,Q5991144
593,Ilaje,321,ON,Ondo,161,NG,Nigeria,6.369232,4.784181,Q5996946
594,Ile Oluji/Okeigbo,321,ON,Ondo,161,NG,Nigeria,7.166442,4.724235,Q5997398
595,Irele,321,ON,Ondo,161,NG,Nigeria,6.48333333,4.86666667,Q6068743
596,Odigbo,321,ON,Ondo,161,NG,Nigeria,6.793915,4.867455,Q7077787
597,Okitipupa,321,ON,Ondo,161,NG,Nigeria,6.55,4.71666667,Q11441396
598,Ondo East,321,ON,Ondo,161,NG,Nigeria,7.065508,4.931343,Q7092206
599,Ondo West,321,ON,Ondo,161,NG,Nigeria,7.09727,4.84115,Q7092211
600,Ose,321,ON,Ondo,161,NG,Nigeria,6.922762,5.777478,Q7106447
601,Owo,321,ON,Ondo,161,NG,Nigeria,7.18333333,5.58333333,Q1788128
602,Ayedaade,322,OS,Osun,161,NG,Nigeria,7.31666667,4.35,Q4699405
603,Aiyedire,322,OS,Osun,161,NG,Nigeria,7.56666667,4.23333333,Q4699407
604,Atakunmosa East,322,OS,Osun,161,NG,Nigeria,7.48333,4.78333,Q4812674
605,Atakunmosa West,322,OS,Osun,161,NG,Nigeria,7.55,4.66667,Q4812675
606,Boluwaduro,322,OS,Osun,161,NG,Nigeria,7.9,4.81666667,Q4940287
607,Boripe,322,OS,Osun,161,NG,Nigeria,7.86666667,4.65833333,Q4945164
608,Ede North,322,OS,Osun,161,NG,Nigeria,7.73333333,4.48333333,Q5336721
609,Ede South,322,OS,Osun,161,NG,Nigeria,7.7,4.45,Q5336722
610,Egbedore,322,OS,Osun,161,NG,Nigeria,7.81666667,4.43333333,Q3511620
611,Ejigbo,322,OS,Osun,161,NG,Nigeria,7.9,4.315,Q5350128
612,Ife Central,322,OS,Osun,161,NG,Nigeria,7.55,4.53333333,Q3509568
613,Ife East,322,OS,Osun,161,NG,Nigeria,7.45,4.6,Q5991130
614,Ife North,322,OS,Osun,161,NG,Nigeria,7.36666667,4.46666667,Q11008758
615,Ife South,322,OS,Osun,161,NG,Nigeria,7.2,4.6,Q5991132
616,Ifedayo,322,OS,Osun,161,NG,Nigeria,7.95,4.98333333,Q5991148
617,Ifelodun,322,OS,Osun,161,NG,Nigeria,7.91667,4.66667,Q3509603
618,Ila,322,OS,Osun,161,NG,Nigeria,8.01666667,4.9,Q3305665
619,Ilesa East,322,OS,Osun,161,NG,Nigeria,7.61666667,4.76666667,Q3509533
620,Ilesa West,322,OS,Osun,161,NG,Nigeria,7.65,4.71666667,Q3509434
621,Irepodun,322,OS,Osun,161,NG,Nigeria,7.83333,4.48333,Q3509552
622,Irewole,322,OS,Osun,161,NG,Nigeria,7.41666667,4.21666667,Q3509478
623,Isokan,322,OS,Osun,161,NG,Nigeria,7.3,4.18333333,Q3510368
624,Iwo,322,OS,Osun,161,NG,Nigeria,7.63333333,4.18333333,Q1665608
625,Obokun,322,OS,Osun,161,NG,Nigeria,7.78333333,4.76666667,Q7075260
626,Odo-Otin,322,OS,Osun,161,NG,Nigeria,8.01666667,4.7,Q3509495
627,Ola-Oluwa,322,OS,Osun,161,NG,Nigeria,7.78333333,4.21666667,Q3510394
628,Olorunda,322,OS,Osun,161,NG,Nigeria,7.86666667,4.58333333,Q3509362
629,Oriade,322,OS,Osun,161,NG,Nigeria,7.58333333,4.86666667,Q3510511
630,Orolu,322,OS,Osun,161,NG,Nigeria,7.9,4.45,Q3509498
631,Osogbo,322,OS,Osun,161,NG,Nigeria,7.76666667,4.56666667,Q868203
632,Afijio,296,OY,Oyo,161,NG,Nigeria,7.8,3.9,Q4689246
633,Akinyele,296,OY,Oyo,161,NG,Nigeria,7.523735,3.914781,Q4701091
634,Atiba,296,OY,Oyo,161,NG,Nigeria,7.849454,3.930354,Q4815763
635,Atisbo,296,OY,Oyo,161,NG,Nigeria,8.549788,3.45,Q4815853
636,Egbeda,296,OY,Oyo,161,NG,Nigeria,7.381337,3.966501,Q5347703
637,Ibadan North,296,OY,Oyo,161,NG,Nigeria,7.403239,3.913107,Q5983592
638,Ibadan North East,296,OY,Oyo,161,NG,Nigeria,7.401536,3.938985,Q5983595
639,Ibadan North West,296,OY,Oyo,161,NG,Nigeria,7.395799,3.881569,Q5983588
640,Ibadan South East,296,OY,Oyo,161,NG,Nigeria,7.37577,3.897557,Q11058510
641,Ibadan South West,296,OY,Oyo,161,NG,Nigeria,7.396389,3.916667,Q5983608
642,Ibarapa Central,296,OY,Oyo,161,NG,Nigeria,7.435346,3.288581,Q11290392
643,Ibarapa East,296,OY,Oyo,161,NG,Nigeria,7.549722,3.45,Q11290895
644,Ibarapa North,296,OY,Oyo,161,NG,Nigeria,7.564226,3.229916,Q5983733
645,Ido,296,OY,Oyo,161,NG,Nigeria,7.507354,3.719376,Q3331530
646,Irepo,296,OY,Oyo,161,NG,Nigeria,7.350425,3.880304,Q6069380
647,Iseyin,296,OY,Oyo,161,NG,Nigeria,7.96666667,3.6,Q1673881
648,Itesiwaju,296,OY,Oyo,161,NG,Nigeria,7.358763,3.959258,Q6094439
649,Iwajowa,296,OY,Oyo,161,NG,Nigeria,7.983269,3.05274,Q6100332
650,Kajola,296,OY,Oyo,161,NG,Nigeria,8.037685,3.348942,Q11282187
651,Lagelu,296,OY,Oyo,161,NG,Nigeria,7.495026,4.073009,Q6471977
652,Ogbomosho North,296,OY,Oyo,161,NG,Nigeria,8.133333,4.25,Q7079884
653,Ogbomosho South,296,OY,Oyo,161,NG,Nigeria,8.11791,4.239092,Q7079886
654,Ogo Oluwa,296,OY,Oyo,161,NG,Nigeria,8.13524,4.24006,Q7080182
655,Olorunsogo,296,OY,Oyo,161,NG,Nigeria,8.752377,4.130988,Q7088523
656,Oluyole,296,OY,Oyo,161,NG,Nigeria,7.218,3.892,Q7088882
657,Ona Ara,296,OY,Oyo,161,NG,Nigeria,7.225568,4.026554,Q11275966
658,Oorelope,296,OY,Oyo,161,NG,Nigeria,8.833333,3.75,Q7101528
659,Ori Ire,296,OY,Oyo,161,NG,Nigeria,8.33423,4.14423,Q7102202
660,Oyo East,296,OY,Oyo,161,NG,Nigeria,7.882092,3.998755,Q7116295
661,Oyo West,296,OY,Oyo,161,NG,Nigeria,7.94157,3.8218,Q7116297
662,Saki East,296,OY,Oyo,161,NG,Nigeria,8.628418,3.640723,Q7402968
663,Saki West,296,OY,Oyo,161,NG,Nigeria,8.666667,3.4,Q7402971
664,Surulere,296,OY,Oyo,161,NG,Nigeria,6.5,3.35,Q994119
665,Barkin Ladi,302,PL,Plateau,161,NG,Nigeria,9.56667,8.91667,Q11279375
666,Bassa,302,PL,Plateau,161,NG,Nigeria,10.0833,8.73333,Q4867996
667,Bokkos,302,PL,Plateau,161,NG,Nigeria,9.25,8.88333333,Q4938795
668,Jos East,302,PL,Plateau,161,NG,Nigeria,9.91666667,9.1,Q6279114
669,Jos North,302,PL,Plateau,161,NG,Nigeria,9.91666667,8.9,Q10967141
670,Jos South,302,PL,Plateau,161,NG,Nigeria,9.76666667,8.8,Q6279136
671,Kanam,302,PL,Plateau,161,NG,Nigeria,9.56601387018746,9.991505892537331,Q50319543
672,Kanke,302,PL,Plateau,161,NG,Nigeria,9.367178899999999,9.639354933485457,Q660473
673,Langtang North,302,PL,Plateau,161,NG,Nigeria,9.13333333,9.78333333,Q6486557
674,Langtang South,302,PL,Plateau,161,NG,Nigeria,8.63333333,9.8,Q6486563
675,Mangu,302,PL,Plateau,161,NG,Nigeria,9.43333333,9.13333333,Q6749158
676,Mikang,302,PL,Plateau,161,NG,Nigeria,9,9.58333333,Q6845702
677,Pankshin,302,PL,Plateau,161,NG,Nigeria,9.327248,9.431291,Q7131329
678,Qua'an Pan,302,PL,Plateau,161,NG,Nigeria,8.8,9.15,Q7268217
679,Riyom,302,PL,Plateau,161,NG,Nigeria,9.56666667,8.66666667,Q4771953
680,Shendam,302,PL,Plateau,161,NG,Nigeria,8.71666667,9.5,Q3481875
681,Wase,302,PL,Plateau,161,NG,Nigeria,9.1,9.96666667,Q7971377
682,Abua-Odual,4926,RI,Rivers,161,NG,Nigeria,4.82972222,6.5675,Q4670480
683,Ahoada East,4926,RI,Rivers,161,NG,Nigeria,5.06833333,6.64666667,Q4696271
684,Ahoada West,4926,RI,Rivers,161,NG,Nigeria,5.08638889,6.47527778,Q4696272
685,Akuku-Toru,4926,RI,Rivers,161,NG,Nigeria,4.56,6.74972222,Q4701936
686,Andoni,4926,RI,Rivers,161,NG,Nigeria,4.54916667,7.44638889,Q4754534
687,Asari-Toru,4926,RI,Rivers,161,NG,Nigeria,4.78333333,6.85,Q4803607
688,Bonny,4926,RI,Rivers,161,NG,Nigeria,4.43333333,7.16666667,Q604978
689,Degema,4926,RI,Rivers,161,NG,Nigeria,4.57416667,6.93805556,Q5251767
690,Eleme,4926,RI,Rivers,161,NG,Nigeria,4.7875,7.14361111,Q5358807
691,Emohua,4926,RI,Rivers,161,NG,Nigeria,4.88333333,6.86666667,Q5373664
692,Etche,4926,RI,Rivers,161,NG,Nigeria,4.99,7.05,Q5402485
693,Gokana,4926,RI,Rivers,161,NG,Nigeria,4.65972222,7.2825,Q5578033
694,Ikwerre,4926,RI,Rivers,161,NG,Nigeria,5.055143,6.922417,Q5996439
695,Khana,4926,RI,Rivers,161,NG,Nigeria,4.7,7.35,Q11008655
696,Obio/Akpor,4926,RI,Rivers,161,NG,Nigeria,4.874902,6.999767,Q7074973
697,Ogba/Egbema/Ndoni,4926,RI,Rivers,161,NG,Nigeria,5.34166944,6.65556111,Q7079867
698,Ogu/Bolo,4926,RI,Rivers,161,NG,Nigeria,4.65055556,7.18305556,Q7080271
699,Okrika,4926,RI,Rivers,161,NG,Nigeria,4.74,7.083,Q7082573
700,Omuma,4926,RI,Rivers,161,NG,Nigeria,4.969419,7.020821,Q7090801
701,Opobo/Nkoro,4926,RI,Rivers,161,NG,Nigeria,4.56805556,7.55277778,Q7098375
702,Oyigbo,4926,RI,Rivers,161,NG,Nigeria,4.87806111,7.12833056,Q7116269
703,Port Harcourt,4926,RI,Rivers,161,NG,Nigeria,4.82416667,7.03361111,Q217432
704,Tai,4926,RI,Rivers,161,NG,Nigeria,4.71666667,7.3,Q7675709
705,Binji,292,SO,Sokoto,161,NG,Nigeria,13.21666667,4.91666667,Q4914402
706,Bodinga,292,SO,Sokoto,161,NG,Nigeria,12.88333333,5.16666667,Q13140401
707,Dange/Shuni,292,SO,Sokoto,161,NG,Nigeria,12.85,5.35,Q5215972
708,Gada,292,SO,Sokoto,161,NG,Nigeria,13.76666667,5.66666667,Q5516271
709,Goronyo,292,SO,Sokoto,161,NG,Nigeria,13.45305556,5.67638889,Q5586824
710,Gudu,292,SO,Sokoto,161,NG,Nigeria,13.46666667,4.43333333,Q3331551
711,Gwadabawa,292,SO,Sokoto,161,NG,Nigeria,13.3697,5.23,Q5623224
712,Illela,292,SO,Sokoto,161,NG,Nigeria,13.7325,5.30027778,Q5999073
713,Isa,292,SO,Sokoto,161,NG,Nigeria,13.20027778,6.40722222,Q6075662
714,Kware,292,SO,Sokoto,161,NG,Nigeria,13.21805556,5.26722222,Q6450223
715,Rabah,292,SO,Sokoto,161,NG,Nigeria,13.11666667,5.51666667,Q7278481
716,Sabon Birni,292,SO,Sokoto,161,NG,Nigeria,13.5611,6.325,Q7396282
717,Shagari,292,SO,Sokoto,161,NG,Nigeria,12.63333333,5,Q7461162
718,Silame,292,SO,Sokoto,161,NG,Nigeria,13.03333333,4.85,Q7514068
719,Sokoto North,292,SO,Sokoto,161,NG,Nigeria,13.05,5.23333333,Q7555307
720,Sokoto South,292,SO,Sokoto,161,NG,Nigeria,13.05,5.21666667,Q7555313
721,Tambuwal,292,SO,Sokoto,161,NG,Nigeria,12.31666667,4.8,Q7681093
722,Tangaza,292,SO,Sokoto,161,NG,Nigeria,13.5167,4.96667,Q7682831
723,Tureta,292,SO,Sokoto,161,NG,Nigeria,12.58944444,5.54694444,Q7854847
724,Wamako,292,SO,Sokoto,161,NG,Nigeria,13.03777778,5.09361111,Q7966899
725,Wurno,292,SO,Sokoto,161,NG,Nigeria,13.28416667,5.4275,Q8039303
726,Yabo,292,SO,Sokoto,161,NG,Nigeria,12.71916667,5.00616667,Q8046387
727,Kebbe,292,SO,Sokoto,161,NG,Nigeria,12.13333333,4.73333333,Q6382383
728,Ardo Kola,319,TA,Taraba,161,NG,Nigeria,8.8467,11.2067,Q4788221
729,Bali,319,TA,Taraba,161,NG,Nigeria,7.854286164866859,10.963562199223984,Q3125978
730,Donga,319,TA,Taraba,161,NG,Nigeria,7.55,10.28333333,Q5295795
731,Gashaka,319,TA,Taraba,161,NG,Nigeria,7.506556,11.364155,Q5603451
732,Gassol,319,TA,Taraba,161,NG,Nigeria,8.4,10.5333,Q3510096
733,Ibi,319,TA,Taraba,161,NG,Nigeria,8.31666667,9.85,Q5984020
734,Jalingo,319,TA,Taraba,161,NG,Nigeria,8.9,11.36666667,Q1023720
735,Karim Lamido,319,TA,Taraba,161,NG,Nigeria,9.2,10.8833,Q6370612
736,Kurmi,319,TA,Taraba,161,NG,Nigeria,8.708857,10.080541,Q6446184
737,Lau,319,TA,Taraba,161,NG,Nigeria,9.18694444,11.42,Q6497586
738,Sardauna,319,TA,Taraba,161,NG,Nigeria,6.95,11.116667,Q7423783
739,Takum,319,TA,Taraba,161,NG,Nigeria,7.25,9.98333333,Q7678554
740,Ussa,319,TA,Taraba,161,NG,Nigeria,7.11666667,10.08333333,Q3331575
741,Wukari,319,TA,Taraba,161,NG,Nigeria,7.85,9.78333333,Q3509190
742,Yorro,319,TA,Taraba,161,NG,Nigeria,8.749986,11.616698,Q8055852
743,Zing,319,TA,Taraba,161,NG,Nigeria,8.993239,11.740887,Q8072371
744,Bade,297,YO,Yobe,161,NG,Nigeria,12.86666667,10.96666667,Q4840705
745,Bursari,297,YO,Yobe,161,NG,Nigeria,12.75,11.76666667,Q13140409
746,Damaturu,297,YO,Yobe,161,NG,Nigeria,11.74444444,11.96111111,Q1023722
747,Fika,297,YO,Yobe,161,NG,Nigeria,11.41666667,11.21666667,Q5448220
748,Fune,297,YO,Yobe,161,NG,Nigeria,11.88333333,11.9,Q5509089
749,Geidam,297,YO,Yobe,161,NG,Nigeria,12.71666667,12.03333333,Q5530097
750,Gujba,297,YO,Yobe,161,NG,Nigeria,11.49777778,11.93083333,Q5617047
751,Gulani,297,YO,Yobe,161,NG,Nigeria,11,11.71666667,Q13140437
752,Jakusko,297,YO,Yobe,161,NG,Nigeria,12.41666667,10.93333333,Q13140476
753,Karasuwa,297,YO,Yobe,161,NG,Nigeria,13,10.78333333,Q15043631
754,Machina,297,YO,Yobe,161,NG,Nigeria,13.1,10,Q6723600
755,Nangere,297,YO,Yobe,161,NG,Nigeria,11.85,10.96666667,Q6963508
756,Nguru,297,YO,Yobe,161,NG,Nigeria,12.875,10.458333,Q3508977
757,Potiskum,297,YO,Yobe,161,NG,Nigeria,11.7092,11.0694,Q3309364
758,Tarmuwa,297,YO,Yobe,161,NG,Nigeria,12.2,11.78333333,Q7686367
759,Yunusari,297,YO,Yobe,161,NG,Nigeria,13.11666667,11.73333333,Q8061404
760,Yusufari,297,YO,Yobe,161,NG,Nigeria,13.18333333,10.85,Q8062007
761,Anka,299,ZA,Zamfara,161,NG,Nigeria,11.98333333,6.03333333,Q4765937
762,Bakura,299,ZA,Zamfara,161,NG,Nigeria,12.15,5.9,Q4849604
763,Birnin Magaji/Kiyaw,299,ZA,Zamfara,161,NG,Nigeria,12.46666667,6.9,Q4916899
764,Bukkuyum,299,ZA,Zamfara,161,NG,Nigeria,12,5.61666667,Q13140404
765,Bungudu,299,ZA,Zamfara,161,NG,Nigeria,12.15,6.5,Q4997683
766,Gummi,299,ZA,Zamfara,161,NG,Nigeria,12.05,5.16666667,Q13140441
767,Gusau,299,ZA,Zamfara,161,NG,Nigeria,12.166667,6.666667,Q600405
768,Kaura Namoda,299,ZA,Zamfara,161,NG,Nigeria,12.6,6.589722,Q6378876
769,Maradun,299,ZA,Zamfara,161,NG,Nigeria,12.75,6.28333333,Q6754606
770,Maru,299,ZA,Zamfara,161,NG,Nigeria,11.6,6.28333333,Q6777871
771,Shinkafi,299,ZA,Zamfara,161,NG,Nigeria,13.03333333,6.51666667,Q7497631
772,Talata Mafara,299,ZA,Zamfara,161,NG,Nigeria,12.35,6.06666667,Q7678957
773,Tsafe,299,ZA,Zamfara,161,NG,Nigeria,11.93333333,6.9,Q255961
774,Zurmi,299,ZA,Zamfara,161,NG,Nigeria,12.85,6.73333333,Q8075410
